Store,Street,City,State,Zip,Phone,Mo-Open,Mo-Closed,Tu-Open,Tu-Closed,We-Open,We-Closed,Th-Open,Th-Closed,Fr-Open,Fr-Closed,Sa-Open,Sa-Closed,Su-Open,Su-Closed
Chipotle,10526 Connecticut Ave,Kensington,MD,20895,2402927927,11:00,22:00,11:00,22:00,11:00,22:00,11:00,22:00,11:00,22:00,11:00,22:00,11:00,22:00
Chipotle,11830 Rockville Pike,Rockville,MD,20852,3018812600,11:00,22:00,11:00,22:00,11:00,22:00,11:00,22:00,11:00,22:00,11:00,22:00,11:00,22:00
Chipotle,10400 Old Georgetown Rd,Bethesda,MD,20814,3012142410,11:00,22:00,11:00,22:00,11:00,22:00,11:00,22:00,11:00,22:00,11:00,22:00,11:00,22:00
Chipotle,13501 Connecticut Ave,Aspen Hill,MD,20906,3015982215,11:00,22:00,11:00,22:00,11:00,22:00,11:00,22:00,11:00,22:00,11:00,22:00,11:00,22:00
Chipotle,865-B Rockville Pike,Rockville,MD,20851,3012795461,11:00,22:00,11:00,22:00,11:00,22:00,11:00,22:00,11:00,22:00,11:00,22:00,11:00,22:00
Chipotle,7600 Old Georgetown Rd,Bethesda,MD,20814,3019079077,11:00,22:00,11:00,22:00,11:00,22:00,11:00,22:00,11:00,22:00,11:00,22:00,11:00,22:00
Chipotle,907 Ellsworth Ave,Silver Spring,MD,20910,3016083688,11:00,22:00,11:00,22:00,11:00,22:00,11:00,22:00,11:00,22:00,11:00,22:00,11:00,22:00
Chipotle,4471 Willard Ave,Chevy Chase,MD,20815,3016546661,11:00,22:00,11:00,22:00,11:00,22:00,11:00,22:00,11:00,22:00,11:00,22:00,11:00,22:00
Chipotle,4301 Wisconsin Ave NW,Washington,DC,20016,2022370602,11:00,22:00,11:00,22:00,11:00,22:00,11:00,22:00,11:00,22:00,11:00,22:00,11:00,22:00
Chipotle,14925 Shady Grove Rd,Rockville,MD,20850,3018389222,11:00,22:00,11:00,22:00,11:00,22:00,11:00,22:00,11:00,22:00,11:00,22:00,11:00,22:00
Chipotle,12060 Cherry Hill Rd,Silver Spring,MD,20904,3015860430,11:00,22:00,11:00,22:00,11:00,22:00,11:00,22:00,11:00,22:00,11:00,22:00,11:00,22:00
Chipotle,2338 Wisconsin Ave,Washington,DC,20007,2027067508,11:00,22:00,11:00,22:00,11:00,22:00,11:00,22:00,11:00,22:00,11:00,22:00,11:00,22:00
Chipotle,3113 14th Street NW,Washington,DC,20010,2029392801,11:00,22:00,11:00,22:00,11:00,22:00,11:00,22:00,11:00,22:00,11:00,22:00,11:00,22:00
Chipotle,2600 Connecticut Ave,Washington,DC,20008,2022999111,11:00,18:00,11:00,22:00,11:00,22:00,11:00,22:00,11:00,22:00,11:00,22:00,11:00,22:00
Chipotle,3333 Olney Sandy Springs Rd,Olney,MD,20832,3015701729,11:00,22:00,11:00,22:00,11:00,22:00,11:00,22:00,11:00,22:00,11:00,22:00,11:00,22:00
Chipotle,1629 Connecticut Ave NW,Washington,DC,20009,2023878261,11:00,22:00,11:00,22:00,11:00,22:00,11:00,22:00,11:00,22:00,11:00,22:00,11:00,22:00
Chipotle,1516 Connecticut Ave NW,Washington,DC,20036,2022324141,11:00,22:00,11:00,22:00,11:00,22:00,11:00,22:00,11:00,22:00,11:00,22:00,11:00,22:00
Chipotle,3255 M Street NW,Washington,DC,20007,2023338377,11:00,22:00,11:00,22:00,11:00,22:00,11:00,22:00,11:00,22:00,11:00,22:00,11:00,22:00
Chipotle,7332 Baltimore Ave,College Park,MD,20740,2405820015,11:00,22:00,11:00,22:00,11:00,22:00,11:00,22:00,11:00,23:00,11:00,23:00,11:00,22:00
Chipotle,1837 M Street NW,Washington,DC,20036,2024664104,11:00,22:00,11:00,22:00,11:00,22:00,11:00,22:00,11:00,22:00,11:00,22:00,11:00,22:00
Chipotle,96 Main St,Gaithersburg,MD,20878,3019263875,11:00,22:00,11:00,22:00,11:00,22:00,11:00,22:00,11:00,22:00,11:00,22:00,11:00,22:00
Chipotle,1735 N Lynn St - Downtown,Arlington,VA,22209,7032946669,10:30,22:00,10:30,22:00,10:30,22:00,10:30,22:00,10:30,22:00,10:30,22:00,10:30,22:00
Chipotle,564 N Frederick Ave,Gaithersburg,MD,20877,2406321228,11:00,22:00,11:00,22:00,11:00,22:00,11:00,22:00,11:00,22:00,11:00,22:00,11:00,22:00
Chipotle,5501 Baltimore Ave,Hyattsville,MD,20781,3019272484,11:00,22:00,11:00,22:00,11:00,22:00,11:00,22:00,11:00,22:00,11:00,22:00,11:00,22:00
Chipotle,1045 5th Street NW,Washington,DC,20001,2026974293,11:00,22:00,11:00,22:00,11:00,22:00,11:00,22:00,11:00,22:00,11:00,22:00,11:00,22:00
